{
  "type": "FeatureCollection",
  "features": [
    {
      "type": "Feature",
      "properties": {
        "norad_id": 43823,
        "name": "GEO-KOMPSAT-2A",
        "group": "weather",
        "lat": -0.034887674580475744,
        "lon": 4.721483608429069,
        "alt_km": 35788.70483280022,
        "timestamp": "2025-12-04T10:51:49.749653+00:00",
        "meta_object_name": "GEO-KOMPSAT-2A",
        "meta_object_id": "2018-100A",
        "meta_epoch": "2025-12-03T17:35:40.686720",
        "meta_mean_motion": 1.00269729,
        "meta_eccentricity": 5.41e-05,
        "meta_inclination": 0.0596,
        "meta_ra_of_asc_node": 121.241,
        "meta_arg_of_pericenter": 95.287,
        "meta_mean_anomaly": 248.4703,
        "meta_ephemeris_type": 0,
        "meta_classification_type": "U",
        "meta_norad_cat_id": 43823,
        "meta_element_set_no": 999,
        "meta_rev_at_epoch": 2567,
        "meta_bstar": 0,
        "meta_mean_motion_dot": -3.26e-06,
        "meta_mean_motion_ddot": 0,
        "tle_line1": "1 43823U 18100A   25337.73310980 -.00000326  00000+0  00000+0 0  9991",
        "tle_line2": "2 43823   0.0596 121.2410 0000541  95.2870 248.4703  1.00269729 25678"
      },
      "geometry": {
        "type": "Point",
        "coordinates": [
          4.721483608429069,
          -0.034887674580475744
        ]
      }
    },
    {
      "type": "Feature",
      "properties": {
        "norad_id": 44387,
        "name": "METEOR-M2 2",
        "group": "weather",
        "lat": 26.934135224582196,
        "lon": -46.48401044182813,
        "alt_km": 810.2774564604388,
        "timestamp": "2025-12-04T10:51:49.749665+00:00",
        "meta_object_name": "METEOR-M2 2",
        "meta_object_id": "2019-038A",
        "meta_epoch": "2025-12-04T05:40:41.038176",
        "meta_mean_motion": 14.24285962,
        "meta_eccentricity": 9.19e-05,
        "meta_inclination": 98.8964,
        "meta_ra_of_asc_node": 317.8618,
        "meta_arg_of_pericenter": 165.2797,
        "meta_mean_anomaly": 194.8408,
        "meta_ephemeris_type": 0,
        "meta_classification_type": "U",
        "meta_norad_cat_id": 44387,
        "meta_element_set_no": 999,
        "meta_rev_at_epoch": 33354,
        "meta_bstar": 0.0001662,
        "meta_mean_motion_dot": 3.38e-06,
        "meta_mean_motion_ddot": 0,
        "tle_line1": "1 44387U 19038A   25338.23658609  .00000338  00000+0  16620-3 0  9998",
        "tle_line2": "2 44387  98.8964 317.8618 0000919 165.2797 194.8408 14.24285962333547"
      },
      "geometry": {
        "type": "Point",
        "coordinates": [
          -46.48401044182813,
          26.934135224582196
        ]
      }
    },
    {
      "type": "Feature",
      "properties": {
        "norad_id": 47719,
        "name": "ARKTIKA-M 1",
        "group": "weather",
        "lat": 55.41973634732097,
        "lon": -142.0180929369952,
        "alt_km": 31217.780329634083,
        "timestamp": "2025-12-04T10:51:49.749678+00:00",
        "meta_object_name": "ARKTIKA-M 1",
        "meta_object_id": "2021-016A",
        "meta_epoch": "2025-12-01T02:41:41.634816",
        "meta_mean_motion": 2.00613156,
        "meta_eccentricity": 0.71974708,
        "meta_inclination": 63.1756,
        "meta_ra_of_asc_node": 85.6045,
        "meta_arg_of_pericenter": 269.084,
        "meta_mean_anomaly": 15.7076,
        "meta_ephemeris_type": 0,
        "meta_classification_type": "U",
        "meta_norad_cat_id": 47719,
        "meta_element_set_no": 999,
        "meta_rev_at_epoch": 3481,
        "meta_bstar": 0,
        "meta_mean_motion_dot": -1.2e-07,
        "meta_mean_motion_ddot": 0,
        "tle_line1": "1 47719U 21016A   25335.11228744 -.00000012  00000+0  00000+0 0  9997",
        "tle_line2": "2 47719  63.1756  85.6045 7197470 269.0840  15.7076  2.00613156 34816"
      },
      "geometry": {
        "type": "Point",
        "coordinates": [
          -142.0180929369952,
          55.41973634732097
        ]
      }
    },
    {
      "type": "Feature",
      "properties": {
        "norad_id": 49008,
        "name": "FENGYUN 3E",
        "group": "weather",
        "lat": 60.55227216421871,
        "lon": 174.8983972523881,
        "alt_km": 820.3347497875702,
        "timestamp": "2025-12-04T10:51:49.749690+00:00",
        "meta_object_name": "FENGYUN 3E",
        "meta_object_id": "2021-062A",
        "meta_epoch": "2025-12-04T03:32:39.211584",
        "meta_mean_motion": 14.19878267,
        "meta_eccentricity": 7.29e-05,
        "meta_inclination": 98.7476,
        "meta_ra_of_asc_node": 338.7708,
        "meta_arg_of_pericenter": 321.2683,
        "meta_mean_anomaly": 38.8441,
        "meta_ephemeris_type": 0,
        "meta_classification_type": "U",
        "meta_norad_cat_id": 49008,
        "meta_element_set_no": 999,
        "meta_rev_at_epoch": 22890,
        "meta_bstar": 5.5387e-05,
        "meta_mean_motion_dot": 7.4e-07,
        "meta_mean_motion_ddot": 0,
        "tle_line1": "1 49008U 21062A   25338.14767606  .00000074  00000+0  55387-4 0  9992",
        "tle_line2": "2 49008  98.7476 338.7708 0000729 321.2683  38.8441 14.19878267228905"
      },
      "geometry": {
        "type": "Point",
        "coordinates": [
          174.8983972523881,
          60.55227216421871
        ]
      }
    },
    {
      "type": "Feature",
      "properties": {
        "norad_id": 51850,
        "name": "GOES 18",
        "group": "weather",
        "lat": 0.0020784132890982955,
        "lon": 99.45863446751127,
        "alt_km": 35789.76937538616,
        "timestamp": "2025-12-04T10:51:49.749702+00:00",
        "meta_object_name": "GOES 18",
        "meta_object_id": "2022-021A",
        "meta_epoch": "2025-12-04T01:05:20.483808",
        "meta_mean_motion": 1.00270632,
        "meta_eccentricity": 8.22e-05,
        "meta_inclination": 0.0019,
        "meta_ra_of_asc_node": 52.2541,
        "meta_arg_of_pericenter": 238.576,
        "meta_mean_anomaly": 21.6264,
        "meta_ephemeris_type": 0,
        "meta_classification_type": "U",
        "meta_norad_cat_id": 51850,
        "meta_element_set_no": 999,
        "meta_rev_at_epoch": 463,
        "meta_bstar": 0,
        "meta_mean_motion_dot": 1.13e-06,
        "meta_mean_motion_ddot": 0,
        "tle_line1": "1 51850U 22021A   25338.04537597  .00000113  00000+0  00000+0 0  9990",
        "tle_line2": "2 51850   0.0019  52.2541 0000822 238.5760  21.6264  1.00270632  4638"
      },
      "geometry": {
        "type": "Point",
        "coordinates": [
          99.45863446751127,
          0.0020784132890982955
        ]
      }
    },
    {
      "type": "Feature",
      "properties": {
        "norad_id": 54234,
        "name": "NOAA 21 (JPSS-2)",
        "group": "weather",
        "lat": 44.02905205797887,
        "lon": 103.42160808948738,
        "alt_km": 822.9596166994806,
        "timestamp": "2025-12-04T10:51:49.749713+00:00",
        "meta_object_name": "NOAA 21 (JPSS-2)",
        "meta_object_id": "2022-150A",
        "meta_epoch": "2025-12-04T01:46:14.916000",
        "meta_mean_motion": 14.19520426,
        "meta_eccentricity": 0.0002524,
        "meta_inclination": 98.7449,
        "meta_ra_of_asc_node": 274.4907,
        "meta_arg_of_pericenter": 54.3468,
        "meta_mean_anomaly": 305.7943,
        "meta_ephemeris_type": 0,
        "meta_classification_type": "U",
        "meta_norad_cat_id": 54234,
        "meta_element_set_no": 999,
        "meta_rev_at_epoch": 15886,
        "meta_bstar": 0.00011835,
        "meta_mean_motion_dot": 2.06e-06,
        "meta_mean_motion_ddot": 0,
        "tle_line1": "1 54234U 22150A   25338.07378375  .00000206  00000+0  11835-3 0  9997",
        "tle_line2": "2 54234  98.7449 274.4907 0002524  54.3468 305.7943 14.19520426158860"
      },
      "geometry": {
        "type": "Point",
        "coordinates": [
          103.42160808948738,
          44.02905205797887
        ]
      }
    },
    {
      "type": "Feature",
      "properties": {
        "norad_id": 54743,
        "name": "METEOSAT-12 (MTG-I1)",
        "group": "weather",
        "lat": -0.34218327673191884,
        "lon": -123.8224074284538,
        "alt_km": 35779.213719637606,
        "timestamp": "2025-12-04T10:51:49.749725+00:00",
        "meta_object_name": "METEOSAT-12 (MTG-I1)",
        "meta_object_id": "2022-170C",
        "meta_epoch": "2025-12-03T18:42:38.603808",
        "meta_mean_motion": 1.00273728,
        "meta_eccentricity": 0.00015205,
        "meta_inclination": 0.7181,
        "meta_ra_of_asc_node": 30.0784,
        "meta_arg_of_pericenter": 216.336,
        "meta_mean_anomaly": 106.8238,
        "meta_ephemeris_type": 0,
        "meta_classification_type": "U",
        "meta_norad_cat_id": 54743,
        "meta_element_set_no": 999,
        "meta_rev_at_epoch": 1101,
        "meta_bstar": 0,
        "meta_mean_motion_dot": 1e-07,
        "meta_mean_motion_ddot": 0,
        "tle_line1": "1 54743U 22170C   25337.77961347  .00000010  00000+0  00000+0 0  9998",
        "tle_line2": "2 54743   0.7181  30.0784 0001520 216.3360 106.8238  1.00273728 11014"
      },
      "geometry": {
        "type": "Point",
        "coordinates": [
          -123.8224074284538,
          -0.34218327673191884
        ]
      }
    }
  ]
}